HAWK-6B                 
1 55324U 23011A   26167.92078583  .00004009  00000+0  17537-3 0  9998
2 55324  40.4997 353.6259 0002407 359.6501   0.4307 15.22931782187807
HAWK-6C                 
1 55326U 23011C   26168.51030787  .00003450  00000+0  15210-3 0  9995
2 55326  40.4990 347.0252 0003211 351.8613   8.2144 15.22932377187901
HAWK-6A                 
1 55327U 23011D   26167.92017618  .00004062  00000+0  17759-3 0  9998
2 55327  40.4996 352.0926 0003039 345.3753  14.6967 15.22929887187819
HAWK-7A                 
1 56191U 23054P   26167.65176773  .00004734  00000+0  17939-3 0  9999
2 56191  97.2703  55.0028 0004378  58.7308 301.4359 15.27356857176946
HAWK-7B                 
1 56193U 23054R   26167.91374299  .00004570  00000+0  17330-3 0  9996
2 56193  97.2726  53.5220 0003760  69.4336 290.7307 15.27356211176985
HAWK-7C                 
1 56200U 23054Y   26168.50326449  .00004497  00000+0  17053-3 0  9995
2 56200  97.2702  54.8653 0003685  59.9071 300.2534 15.27362955177070
