OBJECT_NAME,OBJECT_ID,EPOCH,MEAN_MOTION,ECCENTRICITY,INCLINATION,RA_OF_ASC_NODE,ARG_OF_PERICENTER,MEAN_ANOMALY,EPHEMERIS_TYPE,CLASSIFICATION_TYPE,NORAD_CAT_ID,ELEMENT_SET_NO,REV_AT_EPOCH,BSTAR,MEAN_MOTION_DOT,MEAN_MOTION_DDOT
HAWK-6B,2023-011A,2026-06-16T22:05:55.895712,15.22931782,.0002407,40.4997,353.6259,359.6501,0.4307,0,U,55324,999,18780,.17537E-3,.4009E-4,0
HAWK-6C,2023-011C,2026-06-17T12:14:50.599968,15.22932377,.0003211,40.4990,347.0252,351.8613,8.2144,0,U,55326,999,18790,.1521E-3,.345E-4,0
HAWK-6A,2023-011D,2026-06-16T22:05:03.221952,15.22929887,.0003039,40.4996,352.0926,345.3753,14.6967,0,U,55327,999,18781,.17759E-3,.4062E-4,0
HAWK-7A,2023-054P,2026-06-16T15:38:32.731872,15.27356857,.0004378,97.2703,55.0028,58.7308,301.4359,0,U,56191,999,17694,.17939E-3,.4734E-4,0
HAWK-7B,2023-054R,2026-06-16T21:55:47.394336,15.27356211,.000376,97.2726,53.5220,69.4336,290.7307,0,U,56193,999,17698,.1733E-3,.457E-4,0
HAWK-7C,2023-054Y,2026-06-17T12:04:42.051936,15.27362955,.0003685,97.2702,54.8653,59.9071,300.2534,0,U,56200,999,17707,.17053E-3,.4497E-4,0
